$$SOE
2460147.500000000, A.D. 2023-Jul-22 00:00:00.0000, -3.525634722046997E+08, -3.813464019550141E+08, -1.263982703681739E+08,
2460154.500000000, A.D. 2023-Jul-29 00:00:00.0000, -3.474363426310184E+08, -3.885998421931084E+08, -1.269944574802127E+08,
2460161.500000000, A.D. 2023-Aug-05 00:00:00.0000, -3.422000552441202E+08, -3.957311449850609E+08, -1.275507211407525E+08,
2460168.500000000, A.D. 2023-Aug-12 00:00:00.0000, -3.368574381750276E+08, -4.027394343023742E+08, -1.280673259916305E+08,
2460175.500000000, A.D. 2023-Aug-19 00:00:00.0000, -3.314112821462755E+08, -4.096238813084517E+08, -1.285445399215517E+08,
2460182.500000000, A.D. 2023-Aug-26 00:00:00.0000, -3.258643410080653E+08, -4.163837022346092E+08, -1.289826337553322E+08,
2460189.500000000, A.D. 2023-Sep-02 00:00:00.0000, -3.202193323246441E+08, -4.230181564135332E+08, -1.293818809684058E+08,
2460196.500000000, A.D. 2023-Sep-09 00:00:00.0000, -3.144789379710307E+08, -4.295265445083347E+08, -1.297425574322015E+08,
2460203.500000000, A.D. 2023-Sep-16 00:00:00.0000, -3.086458045686984E+08, -4.359082069921369E+08, -1.300649412094698E+08,
2460210.500000000, A.D. 2023-Sep-23 00:00:00.0000, -3.027225433410754E+08, -4.421625225883653E+08, -1.303493124132070E+08,
2460217.500000000, A.D. 2023-Sep-30 00:00:00.0000, -2.967117297258645E+08, -4.482889054778877E+08, -1.305959529995753E+08,
2460224.500000000, A.D. 2023-Oct-07 00:00:00.0000, -2.906159050952619E+08, -4.542868018126515E+08, -1.308051463220653E+08,
2460231.500000000, A.D. 2023-Oct-14 00:00:00.0000, -2.844375795416217E+08, -4.601556888463560E+08, -1.309771768120351E+08,
2460238.500000000, A.D. 2023-Oct-21 00:00:00.0000, -2.781792324982085E+08, -4.658950750774173E+08, -1.311123299500842E+08,
2460245.500000000, A.D. 2023-Oct-28 00:00:00.0000, -2.718433126181136E+08, -4.715044991416991E+08, -1.312108922120510E+08,
2460252.500000000, A.D. 2023-Nov-04 00:00:00.0000, -2.654322381599096E+08, -4.769835282226010E+08, -1.312731509368461E+08,
2460259.500000000, A.D. 2023-Nov-11 00:00:00.0000, -2.589483977008905E+08, -4.823317565756756E+08, -1.312993941803341E+08,
2460266.500000000, A.D. 2023-Nov-18 00:00:00.0000, -2.523941509568533E+08, -4.875488042296642E+08, -1.312899105796883E+08,
2460273.500000000, A.D. 2023-Nov-25 00:00:00.0000, -2.457718296342459E+08, -4.926343158392851E+08, -1.312449892322662E+08,
2460280.500000000, A.D. 2023-Dec-02 00:00:00.0000, -2.390837382854283E+08, -4.975879596990685E+08, -1.311649195918718E+08,
2460287.500000000, A.D. 2023-Dec-09 00:00:00.0000, -2.323321550883926E+08, -5.024094269752996E+08, -1.310499913938141E+08,
2460294.500000000, A.D. 2023-Dec-16 00:00:00.0000, -2.255193322627074E+08, -5.070984311416708E+08, -1.309004946336355E+08,
2460301.500000000, A.D. 2023-Dec-23 00:00:00.0000, -2.186474957726364E+08, -5.116547069293579E+08, -1.307167195748819E+08,
2460308.500000000, A.D. 2023-Dec-30 00:00:00.0000, -2.117188456570463E+08, -5.160780077402738E+08, -1.304989565768379E+08,
2460315.500000000, A.D. 2024-Jan-06 00:00:00.0000, -2.047355587576939E+08, -5.203681038821948E+08, -1.302474957722168E+08,
2460322.500000000, A.D. 2024-Jan-13 00:00:00.0000, -1.976997906723574E+08, -5.245247834313161E+08, -1.299626270334550E+08,
2460329.500000000, A.D. 2024-Jan-20 00:00:00.0000, -1.906136757091140E+08, -5.285478526367077E+08, -1.296446400879220E+08,
2460336.500000000, A.D. 2024-Jan-27 00:00:00.0000, -1.834793268706483E+08, -5.324371352130631E+08, -1.292938245426364E+08,
2460343.500000000, A.D. 2024-Feb-03 00:00:00.0000, -1.762988362969739E+08, -5.361924714685137E+08, -1.289104698564660E+08,
2460350.500000000, A.D. 2024-Feb-10 00:00:00.0000, -1.690742758890148E+08, -5.398137175566143E+08, -1.284948653086729E+08,
2460357.500000000, A.D. 2024-Feb-17 00:00:00.0000, -1.618076979738734E+08, -5.433007448426123E+08, -1.280472999754532E+08,
2460364.500000000, A.D. 2024-Feb-24 00:00:00.0000, -1.545011359751527E+08, -5.466534393675386E+08, -1.275680627162227E+08,
2460371.500000000, A.D. 2024-Mar-02 00:00:00.0000, -1.471566050582583E+08, -5.498717014414701E+08, -1.270574421748417E+08,
2460378.500000000, A.D. 2024-Mar-09 00:00:00.0000, -1.397761026113903E+08, -5.529554454281243E+08, -1.265157268136861E+08,
2460385.500000000, A.D. 2024-Mar-16 00:00:00.0000, -1.323616081668267E+08, -5.559045995230829E+08, -1.259432050008331E+08,
2460392.500000000, A.D. 2024-Mar-23 00:00:00.0000, -1.249150828663581E+08, -5.587191044160860E+08, -1.253401650503068E+08,
2460399.500000000, A.D. 2024-Mar-30 00:00:00.0000, -1.174384707123650E+08, -5.613989108632069E+08, -1.247068950118807E+08,
2460406.500000000, A.D. 2024-Apr-06 00:00:00.0000, -1.099337013485102E+08, -5.639439795353183E+08, -1.240436825088868E+08,
2460413.500000000, A.D. 2024-Apr-13 00:00:00.0000, -1.024026908188606E+08, -5.663542823057697E+08, -1.233508148813245E+08,
2460420.500000000, A.D. 2024-Apr-20 00:00:00.0000, -9.484734125786123E+07, -5.686298023001397E+08, -1.226285793281190E+08,
2460427.500000000, A.D. 2024-Apr-27 00:00:00.0000, -8.726954102849522E+07, -5.707705332686101E+08, -1.218772629550384E+08,
2460434.500000000, A.D. 2024-May-04 00:00:00.0000, -7.967116522089753E+07, -5.727764789832730E+08, -1.210971527935032E+08,
2460441.500000000, A.D. 2024-May-11 00:00:00.0000, -7.205407627316932E+07, -5.746476527610146E+08, -1.202885358201472E+08,
2460448.500000000, A.D. 2024-May-18 00:00:00.0000, -6.442012463243032E+07, -5.763840770892050E+08, -1.194516989825504E+08,
2460455.500000000, A.D. 2024-May-25 00:00:00.0000, -5.677114943138479E+07, -5.779857833602769E+08, -1.185869292336925E+08,
2460462.500000000, A.D. 2024-Jun-01 00:00:00.0000, -4.910897912061341E+07, -5.794528117717419E+08, -1.176945135850156E+08,
2460469.500000000, A.D. 2024-Jun-08 00:00:00.0000, -4.143543181041278E+07, -5.807852114138483E+08, -1.167747392022650E+08,
2460476.500000000, A.D. 2024-Jun-15 00:00:00.0000, -3.375231492294874E+07, -5.819830399990662E+08, -1.158278935358471E+08,
2460483.500000000, A.D. 2024-Jun-22 00:00:00.0000, -2.606142516028207E+07, -5.830463620573769E+08, -1.148542642970350E+08,
2460490.500000000, A.D. 2024-Jun-29 00:00:00.0000, -1.836455091002863E+07, -5.839752474169738E+08, -1.138541392337095E+08,
2460497.500000000, A.D. 2024-Jul-06 00:00:00.0000, -1.066347444337253E+07, -5.847697724405255E+08, -1.128278061498198E+08,
2460504.500000000, A.D. 2024-Jul-13 00:00:00.0000, -2.959971955946834E+06, -5.854300211927794E+08, -1.117755531165079E+08,
2460511.500000000, A.D. 2024-Jul-20 00:00:00.0000, 4.744186562619509E+06, -5.859560853908925E+08, -1.106976685989135E+08,
2460518.500000000, A.D. 2024-Jul-27 00:00:00.0000, 1.244723697423031E+07, -5.863480640967983E+08, -1.095944415169314E+08,
2460525.500000000, A.D. 2024-Aug-03 00:00:00.0000, 2.014742042559680E+07, -5.866060635262586E+08, -1.084661612956804E+08,
2460532.500000000, A.D. 2024-Aug-10 00:00:00.0000, 2.784298273477970E+07, -5.867301969786243E+08, -1.073131179213966E+08,
2460539.500000000, A.D. 2024-Aug-17 00:00:00.0000, 3.553217377814394E+07, -5.867205848650377E+08, -1.061356020055145E+08,
2460546.500000000, A.D. 2024-Aug-24 00:00:00.0000, 4.321324690546966E+07, -5.865773548568196E+08, -1.049339048615775E+08,
2460553.500000000, A.D. 2024-Aug-31 00:00:00.0000, 5.088445849876250E+07, -5.863006422152051E+08, -1.037083186109441E+08,
2460560.500000000, A.D. 2024-Sep-07 00:00:00.0000, 5.854406804007942E+07, -5.858905901759455E+08, -1.024591363408489E+08,
2460567.500000000, A.D. 2024-Sep-14 00:00:00.0000, 6.619033877323225E+07, -5.853473493928900E+08, -1.011866522415735E+08,
2460574.500000000, A.D. 2024-Sep-21 00:00:00.0000, 7.382153692994343E+07, -5.846710760277061E+08, -9.989116150310126E+07,
2460581.500000000, A.D. 2024-Sep-28 00:00:00.0000, 8.143592903247851E+07, -5.838619317126441E+08, -9.857296019034064E+07,
2460588.500000000, A.D. 2024-Oct-05 00:00:00.0000, 8.903178094232006E+07, -5.829200853840860E+08, -9.723234543342599E+07,
2460595.500000000, A.D. 2024-Oct-12 00:00:00.0000, 9.660735829407163E+07, -5.818457140066259E+08, -9.586961565655625E+07,
2460602.500000000, A.D. 2024-Oct-19 00:00:00.0000, 1.041609265633866E+08, -5.806390024581337E+08, -9.448507070687500E+07,
2460609.500000000, A.D. 2024-Oct-26 00:00:00.0000, 1.116907507365174E+08, -5.793001433766212E+08, -9.307901194585755E+07,
2460616.500000000, A.D. 2024-Nov-02 00:00:00.0000, 1.191950948390781E+08, -5.778293371168813E+08, -9.165174233895531E+07,
2460623.500000000, A.D. 2024-Nov-09 00:00:00.0000, 1.266722214209446E+08, -5.762267917960848E+08, -9.020356655077299E+07,
2460630.500000000, A.D. 2024-Nov-16 00:00:00.0000, 1.341203910234393E+08, -5.744927234281782E+08, -8.873479104827115E+07,
2460637.500000000, A.D. 2024-Nov-23 00:00:00.0000, 1.415378616758596E+08, -5.726273561972220E+08, -8.724572422050035E+07,
2460644.500000000, A.D. 2024-Nov-30 00:00:00.0000, 1.489228886296529E+08, -5.706309229126720E+08, -8.573667653753811E+07,
2460651.500000000, A.D. 2024-Dec-07 00:00:00.0000, 1.562737247495530E+08, -5.685036652264287E+08, -8.420796075274849E+07,
2460658.500000000, A.D. 2024-Dec-14 00:00:00.0000, 1.635886208727010E+08, -5.662458323880779E+08, -8.265989198510748E+07,
2460665.500000000, A.D. 2024-Dec-21 00:00:00.0000, 1.708658238166876E+08, -5.638576797790177E+08, -8.109278757013479E+07,
2460672.500000000, A.D. 2024-Dec-28 00:00:00.0000, 1.781035740087949E+08, -5.613394701922985E+08, -7.950696710259929E+07,
2460679.500000000, A.D. 2025-Jan-04 00:00:00.0000, 1.853001053339310E+08, -5.586914754820184E+08, -7.790275271490064E+07,
2460686.500000000, A.D. 2025-Jan-11 00:00:00.0000, 1.924536453801914E+08, -5.559139769230193E+08, -7.628046928834030E+07,
2460693.500000000, A.D. 2025-Jan-18 00:00:00.0000, 1.995624151651263E+08, -5.530072652002015E+08, -7.464044458810589E+07,
2460700.500000000, A.D. 2025-Jan-25 00:00:00.0000, 2.066246285861969E+08, -5.499716405024092E+08, -7.298300938289726E+07,
2460707.500000000, A.D. 2025-Feb-01 00:00:00.0000, 2.136384917849216E+08, -5.468074127514184E+08, -7.130849756884927E+07,
$$EOE